SL-14 R/B               
1 20262U 89080C   25247.51906466  .00000423  00000+0  12831-3 0  9990
2 20262  82.5923 292.7383 1229596 250.2956  96.1627 12.50337193636886
DELTA 1 R/B             
1 20323U 89089B   25247.58012084  .00000647  00000+0  16936-3 0  9996
2 20323  97.0911 119.4655 0069109 351.8936   8.1139 14.50453616868751
ARIANE 40 R/B           
1 20443U 90005H   25247.77517390  .00000556  00000+0  19119-3 0  9995
2 20443  98.3390 308.6770 0010947  49.3503 310.8636 14.39689317866056
DELTA 2 R/B(1)          
1 20453U 90008B   25247.49100309  .00032632  00000+0  65987-3 0  9990
2 20453  35.6089 297.3033 0126897 356.2325   3.7443 15.37162092897318
COSMOS 2058             
1 20465U 90010A   25247.94824774  .00005709  00000+0  35556-3 0  9999
2 20465  82.4730 230.0918 0008042 242.1465 117.8950 15.09381274914201
SL-14 R/B               
1 20466U 90010B   25247.92482933  .00000733  00000+0  86435-4 0  9990
2 20466  82.4989  81.8298 0019625 187.9815 172.1091 14.83324409900949
SL-14 R/B               
1 20511U 90018B   25247.89924196  .00000787  00000+0  96392-4 0  9999
2 20511  82.5214  36.7240 0016097 348.3790  11.7050 14.81908192895067
HST                     
1 20580U 90037B   25247.65228381  .00008722  00000+0  31953-3 0  9991
2 20580  28.4673 225.9595 0002117 227.2369 132.8048 15.26181473744836
SL-16 R/B               
1 20625U 90046B   25247.56344854  .00000124  00000+0  88567-4 0  9997
2 20625  71.0010 328.8012 0015940 232.7087 127.2583 14.14973215822061
COSMOS 2084             
1 20663U 90055A   25247.80385296  .00003667  00000+0  27128-3 0  9991
2 20663  62.7887 248.8636 0048280 163.0096 197.2635 15.04114494908341
SL-6 R/B(2)             
1 20666U 90055D   25247.94888546  .00003376  00000+0  26805-3 0  9993
2 20666  62.7843 164.9000 0014798 221.0516 138.9470 15.02363255910271
SL-8 R/B                
1 20775U 90078B   25247.89802898  .00012179  00000+0  39995-3 0  9994
2 20775  82.9050  57.3703 0392082 275.4350  80.2267 14.80571963781726
SL-8 R/B                
1 21088U 91006B   25247.53853009  .00000065  00000+0  49776-4 0  9995
2 21088  82.9432 308.5304 0022231 193.1364 279.8717 13.77470248738449
OKEAN-3                 
1 21397U 91039A   25247.79288292  .00004231  00000+0  31031-3 0  9991
2 21397  82.5201 156.7444 0012901 239.7987 120.1962 15.03214591837090
COSMOS 2151             
1 21422U 91042A   25247.85529576  .00003281  00000+0  26769-3 0  9990
2 21422  82.4934 262.7529 0011610 334.8586  25.2071 14.99107912835345
SL-14 R/B               
1 21423U 91042B   25247.91389272  .00000829  00000+0  10232-3 0  9998
2 21423  82.4934  34.3734 0018233 128.6756 231.6093 14.81607151825564
ERS-1                   
1 21574U 91050A   25247.95230391  .00000602  00000+0  20771-3 0  9993
2 21574  98.7945 256.5015 0032740  35.0008 325.3322 14.39251558789017
ARIANE 40 R/B           
1 21610U 91050F   25247.75110002  .00000636  00000+0  20378-3 0  9998
2 21610  98.2323 301.6743 0001881 280.3458  79.7521 14.42693121792182
INTERCOSMOS 25          
1 21819U 91086A   25247.87197660  .00004476  00000+0  87941-3 0  9991
2 21819  82.5989  62.2937 1489672 157.3284 210.1288 12.11266605474186
SL-8 R/B                
1 21876U 92008B   25247.93785478  .00000042  00000+0  28148-4 0  9996
2 21876  82.9258  45.9129 0033484 294.4218 175.8525 13.75938651683875
SL-8 R/B                
1 21938U 92020B   25247.48740801  .00000047  00000+0  32936-4 0  9995
2 21938  82.9286 292.0483 0030476  97.5020  14.5038 13.75519640675539
USA 81                  
1 21949U 92023A   25247.90112471  .00000325  00000+0  11310-3 0  9994
2 21949  85.0041 238.5724 0001220  90.2943 269.8389 14.32269365 68198
COSMOS 2219             
1 22219U 92076A   25247.90114534  .00000373  00000+0  22033-3 0  9992
2 22219  71.0612  46.4366 0016479 127.6870 232.5750 14.14044490692116
SL-16 R/B               
1 22220U 92076B   25247.94624792 -.00000060  00000+0 -59708-5 0  9996
2 22220  70.9989 219.6264 0012375   7.4355  54.6421 14.16818827695529
COSMOS 2221             
1 22236U 92080A   25247.72256104  .00003270  00000+0  29501-3 0  9992
2 22236  82.5018  97.0477 0016092  96.4916 263.8138 14.95152282752990
SL-16 R/B               
1 22285U 92093B   25247.80382947  .00000371  00000+0  21466-3 0  9995
2 22285  71.0228  34.4772 0006067 244.1013 115.9485 14.15407970686856
COSMOS 2228             
1 22286U 92094A   25247.92414548  .00003658  00000+0  32278-3 0  9997
2 22286  82.5157  55.0163 0017758 203.4829 156.5584 14.96027149748271
SL-16 R/B               
1 22566U 93016B   25247.40163613  .00000195  00000+0  12481-3 0  9997
2 22566  71.0049 246.4311 0012372 250.8952 109.0831 14.15264245675814
COSMOS 2242             
1 22626U 93024A   25247.89692075  .00003362  00000+0  30106-3 0  9998
2 22626  82.5159  84.2605 0015885 205.8881 154.1547 14.95460692752618
SL-16 R/B               
1 22803U 93059B   25247.84576310  .00000041  00000+0  43993-4 0  9991
2 22803  70.9906  43.0219 0015534 139.1114 221.1178 14.17187626653206
ARIANE 40 R/B           
1 22830U 93061H   25247.80053717  .00000457  00000+0  18389-3 0  9992
2 22830  98.5202 315.0703 0011838 112.8811 247.3624 14.32704463667488
COSMOS 2278             
1 23087U 94023A   25247.94395419 -.00000136  00000+0 -46511-4 0  9994
2 23087  71.0525 203.6948 0010836 303.8237  56.1853 14.14314541618548
SL-16 R/B               
1 23088U 94023B   25247.93458395 -.00000013  00000+0  18177-4 0  9997
2 23088  70.9979 100.9812 0005019 239.4686 120.5942 14.14975396619815
SL-16 R/B               
1 23343U 94074B   25247.72060396  .00000911  00000+0  12960-3 0  9993
2 23343  97.7342 280.8820 0008056 104.2814  14.1728 14.79124143659757
SL-16 R/B               
1 23405U 94077B   25247.77667244  .00000332  00000+0  19412-3 0  9991
2 23405  70.9846  23.6030 0000468  70.5609 289.5565 14.15528281589929
ARIANE 40+ R/B          
1 23561U 95021B   25247.84909447  .00000520  00000+0  18042-3 0  9993
2 23561  98.4773 316.5756 0006334 348.6085 144.8583 14.39584906592503
SL-16 R/B               
1 23705U 95058B   25247.91577206  .00000067  00000+0  58577-4 0  9999
2 23705  71.0209 210.2731 0011187  33.4774 326.7054 14.15463252541561
SL-16 R/B               
1 24298U 96051B   25247.90406968 -.00000104  00000+0 -29442-4 0  9999
2 24298  70.7617 208.4639 0013482  41.9428 318.2721 14.12396047495417
ORBVIEW 2 (SEASTAR)     
1 24883U 97037A   25247.92903976  .00000529  00000+0  20098-3 0  9993
2 24883  98.8372  42.5705 0001348 229.5927 130.5140 14.35304986481829
SL-16 R/B               
1 25400U 98043G   25247.86498056  .00000134  00000+0  75189-4 0  9992
2 25400  98.7932 195.2259 0009580 187.5477 172.5559 14.25988988412503
SL-16 R/B               
1 25407U 98045B   25247.94711551  .00000271  00000+0  16083-3 0  9997
2 25407  71.0099 212.1738 0009355 300.0393  59.9802 14.16151014400809
ISS (ZARYA)             
1 25544U 98067A   25247.87546073  .00010266  00000+0  18690-3 0  9991
2 25544  51.6333 272.1007 0004202 300.0196  60.0376 15.50106511527527
CZ-4B R/B               
1 25732U 99025C   25247.77775164  .00000139  00000+0  87843-4 0  9994
2 25732  98.6930 291.1829 0037577 157.9845 317.8733 14.18208902361812
OKEAN-O                 
1 25860U 99039A   25247.74531335  .00001356  00000+0  18651-3 0  9990
2 25860  97.9760 304.2300 0001119 115.1399 244.9928 14.79919596406888
SL-16 R/B               
1 25861U 99039B   25247.76935152  .00001072  00000+0  14386-3 0  9994
2 25861  98.0284 301.8355 0015823 136.9031 223.3423 14.81379590409337
DELTA 2 R/B             
1 25876U 99041E   25247.49576963  .00002797  00000+0  48847-3 0  9998
2 25876  51.7630 324.4663 0506073 159.1441 203.0968 14.11079116336737
HELIOS 1B               
1 25977U 99064A   25247.68354690  .00002519  00000+0  28974-3 0  9998
2 25977  98.1826 139.4347 0001013  38.8334 321.2954 14.86714753657618
TERRA                   
1 25994U 99068A   25247.90633481  .00000831  00000+0  17939-3 0  9998
2 25994  97.9909 303.1332 0003417  67.1361  37.7719 14.60787066367957
SL-16 R/B               
1 26070U 00006B   25247.91448773  .00000300  00000+0  17660-3 0  9999
2 26070  71.0023 128.4480 0014449 106.3913 253.8800 14.15787793322265
TITAN 4B R/B            
1 26474U 00047B   25247.93016825  .00005207  00000+0  34023-3 0  9996
2 26474  67.9892 202.1201 0047795 251.7889 107.8053 15.07685969364896
ENVISAT                 
1 27386U 02009A   25247.88912427  .00000271  00000+0  10169-3 0  9997
2 27386  98.3408 201.2318 0001148  87.9535 336.1894 14.38944728232458
IDEFIX & ARIANE 42P R/B 
1 27422U 02021B   25247.84729126  .00000536  00000+0  22082-3 0  9991
2 27422  98.5627 183.9112 0012370  20.0463 340.1203 14.30841977217444
AQUA                    
1 27424U 02022A   25247.90592319  .00001862  00000+0  38558-3 0  9991
2 27424  98.3849 207.2954 0001799 103.4704 319.6689 14.61456621241595
CZ-4B R/B               
1 27432U 02024C   25247.76744438  .00000114  00000+0  81745-4 0  9993
2 27432  98.9163 296.7982 0050040 189.7258 280.1082 14.14499830202950
MIDORI II (ADEOS-II)    
1 27597U 02056A   25247.85954488  .00000513  00000+0  21999-3 0  9995
2 27597  98.7445 200.3950 0001403 127.3625 232.7684 14.29102145183757
H-2A R/B                
1 27601U 02056E   25247.92347174  .00000707  00000+0  26328-3 0  9993
2 27601  98.2878 210.7063 0070459 356.3412  69.4253 14.33566598187496
CZ-4B R/B               
1 28059U 03049C   25247.90146140  .00000802  00000+0  19592-3 0  9993
2 28059  98.6678 230.7794 0049596  78.9950 281.6819 14.54753095159589
CZ-2C R/B               
1 28222U 04012C   25247.72548378  .00030044  00000+0  57723-3 0  9994
2 28222  97.7594 292.7303 0019855 267.9849  91.9127 15.47688712175379
SL-16 R/B               
1 28353U 04021B   25247.48067246 -.00000101  00000+0 -27688-4 0  9993
2 28353  70.9991 263.2585 0007128 306.0709  53.9753 14.14562875 96507
